BEIDOU-2 IGSO-5         
1 37948U 11073A   26169.66754444 -.00000192  00000+0  00000+0 0  9998
2 37948  47.6748 271.5267 0113971 221.7702 105.6518  1.00272695 53143
LUCH-5A                 
1 37951U 11074B   26170.58890955 -.00000059  00000+0  00000+0 0  9996
2 37951   8.7610  73.7726 0002370  26.6341 186.3456  1.00270759 53074
BEIDOU-2 G5             
1 38091U 12008A   26170.94380128  .00000051  00000+0  00000+0 0  9997
2 38091   3.5816  69.6864 0009047 273.1123 323.7890  1.00272661 52390
BEIDOU-2 M3             
1 38250U 12018A   26170.87348573 -.00000087  00000+0  00000+0 0  9995
2 38250  55.7554 304.7848 0020142 273.7416  86.0206  1.86229624 95998
BEIDOU-2 M4             
1 38251U 12018B   26170.26882991 -.00000082  00000+0  00000+0 0  9991
2 38251  55.6560 304.0191 0011331 275.2642  84.5989  1.86229271 95985
SES-5                   
1 38652U 12036A   26170.39494258  .00000027  00000+0  00000+0 0  9993
2 38652   0.0451 317.4240 0001795 130.6144 326.7286  1.00271228 44474
BEIDOU-2 M6             
1 38775U 12050B   26169.97856022 -.00000060  00000+0  00000+0 0  9996
2 38775  56.5458  62.8350 0013637 357.7339   2.3019  1.86230903 93342
GSAT-10                 
1 38779U 12051B   26170.71414348 -.00000171  00000+0  00000+0 0  9999
2 38779   0.0735 261.5699 0007805 186.6317 159.8354  1.00272197 50123
NAVSTAR 67 (USA 239)    
1 38833U 12053A   26170.31045861  .00000052  00000+0  00000+0 0  9995
2 38833  53.5865 143.5123 0180439  65.7868 296.0554  2.00567484 99480
GSAT0103 (GALILEO-FM3)  
1 38857U 12055A   26168.47561804 -.00000011  00000+0  00000+0 0  9993
2 38857  55.8068 101.5377 0004771 306.3432  53.5821  1.70473345 85011
BEIDOU-2 G6             
1 38953U 12059A   26170.70976387 -.00000183  00000+0  00000+0 0  9999
2 38953   4.4288  73.4979 0009632 324.3686 209.6174  1.00271500 49937
LUCH-5B                 
1 38977U 12061A   26169.89176601 -.00000148  00000+0  00000+0 0  9998
2 38977  10.4892  49.8655 0002465 150.1855  11.8366  1.00272094 49620
COSMOS 2485 [GLONASS-M] 
1 39155U 13019A   26167.91000455 -.00000020  00000+0  00000+0 0  9994
2 39155  65.4195  73.6140 0023135 234.1379 125.6814  2.13103258102273
NAVSTAR 68 (USA 242)    
1 39166U 13023A   26170.67606648 -.00000052  00000+0  00000+0 0  9999
2 39166  54.5020 268.8722 0141504  51.0528 310.2374  2.00563426 95938
IRNSS-1A                
1 39199U 13034A   26169.89544831  .00000051  00000+0  00000+0 0  9992
2 39199  35.7241  63.8469 0017589 183.2529  37.3106  1.00275723 47380
NAVSTAR 69 (USA 248)    
1 39533U 14008A   26170.67773285  .00000058  00000+0  00000+0 0  9998
2 39533  53.6551 149.2181 0084220 231.3098 127.9099  2.00559931 89736
ASTRA 5B                
1 39617U 14011B   26170.82633197  .00000131  00000+0  00000+0 0  9991
2 39617   0.0645 311.7615 0002126 112.3785 164.8818  1.00270038 44695
COSMOS 2492 [GLONASS-M] 
1 39620U 14012A   26169.27664962 -.00000055  00000+0  00000+0 0  9993
2 39620  65.2971 313.8989 0010348 324.5914  35.3281  2.13103143 95269
IRNSS-1B                
1 39635U 14017A   26170.76140735  .00000109  00000+0  00000+0 0  9996
2 39635  28.9179 240.3593 0023150 189.6008 167.3236  1.00277178 44811
LUCH-5V                 
1 39727U 14023A   26170.76914560 -.00000276  00000+0  00000+0 0  9996
2 39727   5.1398  69.7202 0001891  49.9743 159.9136  1.00273433 44383
NAVSTAR 70 (USA 251)    
1 39741U 14026A   26169.95608637 -.00000088  00000+0  00000+0 0  9990
2 39741  56.4974 331.4485 0038172 326.5493  33.2021  2.00560795 88575
COSMOS 2500 [GLONASS-M] 
1 40001U 14032A   26170.85415876 -.00000060  00000+0  00000+0 0  9990
2 40001  65.2308 313.5924 0007431 184.8024 175.1825  2.13105731 93510
NAVSTAR 71 (USA 256)    
1 40105U 14045A   26170.04787568 -.00000020  00000+0  00000+0 0  9996
2 40105  55.3543  88.3908 0033392 118.2387 242.1042  2.00558492 86119
GSAT0201 (GALILEO 5)    
1 40128U 14050A   26170.57286915 -.00000074  00000+0  00000+0 0  9994
2 40128  48.8729 273.3385 1674922 179.4838 180.7636  1.85520003 78366
GSAT0202 (GALILEO 6)    
1 40129U 14050B   26170.82839629 -.00000076  00000+0  00000+0 0  9991
2 40129  48.8892 272.4135 1676188 180.2230 179.7415  1.85520639 80533
IRNSS-1C                
1 40269U 14061A   26170.79126231 -.00000168  00000+0  00000+0 0  9994
2 40269   6.5240  88.8821 0022682   2.7462 184.1889  1.00268918 42714
NAVSTAR 72 (USA 258)    
1 40294U 14068A   26168.92054840 -.00000079  00000+0  00000+0 0  9998
2 40294  56.9881  30.9264 0067071  70.6155 290.1646  2.00576133 85229
COSMOS 2501 [GLONASS-K] 
1 40315U 14075A   26170.17773414  .00000057  00000+0  00000+0 0  9990
2 40315  63.6164 190.3031 0022630 212.5045 147.3980  2.13101225 89893
NAVSTAR 73 (USA 260)    
1 40534U 15013A   26170.55546011  .00000033  00000+0  00000+0 0  9993
2 40534  53.1677 204.0796 0109583  40.1503 320.7125  2.00551230 81876
GSAT0203 (GALILEO 7)    
1 40544U 15017A   26168.79938999 -.00000091  00000+0  00000+0 0  9996
2 40544  56.7854 341.5787 0002098 276.4201  83.5494  1.70476090 69215
GSAT0204 (GALILEO 8)    
1 40545U 15017B   26170.22835249 -.00000094  00000+0  00000+0 0  9995
2 40545  56.7938 341.5583 0001942 246.6758 113.2973  1.70475686 32286
